PHISAT 2                
1 60470U 24149C   26068.78834181  .00008925  00000+0  31421-3 0  9996
2 60470  97.3806 148.6498 0001175 168.6230 191.5037 15.29548631 86792
STARLINK-35755          
1 67163U 25303A   26068.09006811  .00039901  00000+0  14510-2 0  9997
2 67163  42.9997 314.0948 0001700 332.6659  27.4103 15.27594287 12646
